AMC-1 (GE-1)            
1 24315U 96054A   22199.86329052  .00000053  00000+0  00000+0 0  9993
2 24315   5.6926  72.9087 0003250  47.0624 356.5367  1.00272771 31995
AMC-3 (GE-3)            
1 24936U 97050A   22200.33124635 -.00000271  00000+0  00000+0 0  9997
2 24936   4.6217  79.2160 0002957  41.8580 223.2546  1.00272883 91128
ASTRA 1G                
1 25071U 97076A   22200.29515104  .00000103  00000+0  00000+0 0  9999
2 25071   6.3161  68.0694 0003129  49.8489 304.7811  1.00269651 90210
ASTRA 2A                
1 25462U 98050A   22199.81091016  .00000058  00000+0  00000+0 0  9991
2 25462   3.4816  85.2682 0002277  27.0990 173.3200  1.00272435 32004
AMC-4 (GE-4)            
1 25954U 99060A   22199.67896656  .00000077  00000+0  00000+0 0  9997
2 25954   1.5969  91.5624 0003128  29.8632 284.5397  1.00272080 29210
NSS-11 (AAP-1)          
1 26554U 00059A   22200.18289069  .00000017  00000+0  00000+0 0  9991
2 26554   0.0368 298.3645 0002725 155.1232  85.2902  1.00271637 79844
AMC-6 (GE-6)            
1 26580U 00067A   22200.47063247  .00000097  00000+0  00000+0 0  9997
2 26580   0.0240 318.5276 0002596 147.3236 221.7886  1.00270696 79651
ASTRA 2D                
1 26638U 00081A   22199.79373810  .00000116  00000+0  00000+0 0  9991
2 26638   7.3565  60.1057 0001725  75.1832 110.6821  1.00270562 38578
AMC-8 (GE-8)            
1 26639U 00081B   22200.42949128  .00000079  00000+0  00000+0 0  9994
2 26639   2.5248  88.2839 0002897  17.7297 210.7901  1.00268010 78942
ASTRA 2C                
1 26853U 01025A   22200.21159411 -.00000270  00000+0  00000+0 0  9990
2 26853   4.6458  79.0212 0002800  44.4868 177.1653  1.00269987 77240
ASTRA 3A                
1 27400U 02015B   22200.13048326 -.00000216  00000+0  00000+0 0  9992
2 27400   7.4598  58.9813 0001170  55.8322 142.3012  1.00272458 74380
NSS-7                   
1 27414U 02019A   22200.00257622 -.00000170  00000+0  00000+0 0  9997
2 27414   5.9705  71.0711 0002222  48.1377 158.4926  1.00272060 74229
NSS-6                   
1 27603U 02057A   22199.75530809  .00000097  00000+0  00000+0 0  9996
2 27603   1.6888  91.3425 0003514  29.9583 277.5730  1.00272296 71709
AMC-11 (GE-11)          
1 28252U 04017A   22200.43470980  .00000063  00000+0  00000+0 0  9999
2 28252   0.0583 285.7258 0002050 194.9727 201.9806  1.00260469 66376
AMC-15                  
1 28446U 04041A   22199.83984013 -.00000097  00000+0  00000+0 0  9997
2 28446   0.0422 299.0389 0002598 173.3764  21.4747  1.00271501 64999
NSS-10 (AMC-12)         
1 28526U 05003A   22200.14033689 -.00000261  00000+0  00000+0 0  9999
2 28526   2.8621  87.0515 0002903  19.8643 203.0435  1.00270462 63980
ASTRA 1KR               
1 29055U 06012A   22200.38382793  .00000113  00000+0  00000+0 0  9992
2 29055   0.0556 262.9218 0003087 261.8445 289.7473  1.00278047 59426
AMC-18                  
1 29644U 06054B   22200.38907743 -.00000223  00000+0  00000+0 0  9993
2 29644   0.0534 280.1159 0002341 199.7731 234.3173  1.00267331 57213
ASTRA 1L                
1 31306U 07016A   22200.29515104  .00000112  00000+0  00000+0 0  9992
2 31306   0.0679 302.5611 0000805 148.6024 331.3357  1.00272851 55712
ASTRA 4A (SIRIUS 4)     
1 32299U 07057A   22199.82757619  .00000023  00000+0  00000+0 0  9995
2 32299   0.0153 354.0373 0002940 124.7430 120.5351  1.00272441 37342
AMC-21                  
1 33275U 08038B   22199.88715907  .00000028  00000+0  00000+0 0  9995
2 33275   0.0533 285.0864 0003113 204.0987   1.9264  1.00271475 51166
ASTRA 1M                
1 33436U 08057A   22199.82202162  .00000110  00000+0  00000+0 0  9995
2 33436   0.0311  96.5331 0005328  32.7180 122.4273  1.00270389 31399
CIEL-2                  
1 33453U 08063A   22200.43804646  .00000050  00000+0  00000+0 0  9999
2 33453   0.0269 112.4085 0003112   6.1907 207.4323  1.00272537 49807
NSS-9                   
1 33749U 09008A   22199.82553927  .00000062  00000+0  00000+0 0  9993
2 33749   0.0201 341.6929 0002130 139.7283 295.4209  1.00271871 49195
SES-7 (PROTOSTAR 2)     
1 34941U 09027A   22200.45639411 -.00000352  00000+0  00000+0 0  9997
2 34941   0.0135 344.9875 0001411 202.5379  22.2283  1.00266840 48285
NSS-12                  
1 36032U 09058A   22200.32549512  .00000064  00000+0  00000+0 0  9991
2 36032   0.0263  73.2712 0002837  48.0982 349.8858  1.00272176 46584
SES-1                   
1 36516U 10016A   22199.62827206 -.00000124  00000+0  00000+0 0  9991
2 36516   0.0409 286.8821 0002629 183.4596 311.2251  1.00271507 44709
ASTRA 3B                
1 36581U 10021A   22200.15245774  .00000129  00000+0  00000+0 0  9998
2 36581   0.0430 345.0099 0003334 143.3814 246.9000  1.00271228 44326
SES-3                   
1 37748U 11035A   22200.12731007 -.00000110  00000+0  00000+0 0  9997
2 37748   0.0207 349.3257 0002991 126.7620 123.6261  1.00271564 40368
ASTRA 1N                
1 37775U 11041A   22199.82202162  .00000110  00000+0  00000+0 0  9992
2 37775   0.0479  37.4152 0004538  44.7957 169.4985  1.00269258 30197
SES-2                   
1 37809U 11049A   22200.45952238 -.00000203  00000+0  00000+0 0  9990
2 37809   0.0215 321.9567 0002887 155.6678 258.0160  1.00271779 39674
QUETZSAT 1              
1 37826U 11054A   22200.50049313 -.00000249  00000+0  00000+0 0  9992
2 37826   0.0408 290.0504 0003018 196.7404 273.6405  1.00271905 39771
SES-4                   
1 38087U 12007A   22200.44771556 -.00000176  00000+0  00000+0 0  9994
2 38087   0.0092  23.0641 0002481 101.4321 311.8853  1.00270297 38167
SES-5                   
1 38652U 12036A   22199.57481569  .00000024  00000+0  00000+0 0  9998
2 38652   0.0595 287.6805 0002015 189.3721  31.1962  1.00271708 36737
ASTRA 2F                
1 38778U 12051A   22200.34632778  .00000142  00000+0  00000+0 0  9993
2 38778   0.0888 249.6080 0002753 286.1320 274.2347  1.00270032 35964
SES-6                   
1 39172U 13026A   22200.42678808 -.00000269  00000+0  00000+0 0  9999
2 39172   0.0180 346.7243 0002217 130.7180 292.8904  1.00271583 33393
O3B FM5                 
1 39188U 13031A   22200.25976511 -.00000025  00000+0  00000+0 0  9995
2 39188   0.0508  25.2925 0002571  92.6957 242.0342  5.00115267165637
O3B FM4                 
1 39189U 13031B   22196.91723992 -.00000024  00000+0  00000+0 0  9995
2 39189   0.0572 356.4778 0003510 169.0593 194.4693  4.99833275165400
O3B FM2                 
1 39190U 13031C   22199.58812364 -.00000025  00000+0  00000+0 0  9996
2 39190   0.0605 352.3941 0001125 107.8562 259.7585  4.99476749165596
O3B PFM                 
1 39191U 13031D   22199.43410123 -.00000025  00000+0  00000+0 0  9998
2 39191   0.0497  15.1103 0002659 101.8164 243.0966  5.00115686165148
ASTRA 2E                
1 39285U 13056A   22199.84632813  .00000141  00000+0  00000+0 0  9994
2 39285   0.0731 325.6999 0002250 149.1048 154.9632  1.00269640 32103
SES-8                   
1 39460U 13071A   22200.09498844 -.00000278  00000+0  00000+0 0  9992
2 39460   0.0485 244.4381 0002812 228.4958 313.1144  1.00271354 31541
ASTRA 5B                
1 39617U 14011B   22200.34632778  .00000147  00000+0  00000+0 0  9999
2 39617   0.0490  59.0631 0003474  60.9872 333.2131  1.00273544 30549
O3B FM3                 
1 40079U 14038A   22199.68872903 -.00000025  00000+0  00000+0 0  9998
2 40079   0.0546   3.6501 0005069 112.9354 243.4626  5.00115374141534
O3B FM7                 
1 40080U 14038B   22199.63480143 -.00000025  00000+0  00000+0 0  9996
2 40080   0.0587   2.1103 0000905 142.3600 215.5320  5.00115419146365
O3B FM6                 
1 40081U 14038C   22199.26139403 -.00000025  00000+0  00000+0 0  9996
2 40081   0.0542   2.7074 0002694 115.0804 242.2357  5.00115383146299
O3B FM8                 
1 40082U 14038D   22199.11546158 -.00000025  00000+0  00000+0 0  9990
2 40082   0.0544 359.3751 0002708 115.2632 245.3861  5.00115602146403
O3B FM10                
1 40348U 14083A   22199.74112734 -.00000025  00000+0  00000+0 0  9993
2 40348   0.0475   9.6537 0002640 107.3110 243.0585  5.00115127138384
O3B FM11                
1 40349U 14083B   22199.75461269 -.00000025  00000+0  00000+0 0  9995
2 40349   0.0517  12.1311 0002182 117.9970 229.8873  5.00115351138407
O3B FM12                
1 40350U 14083C   22198.98224221 -.00000025  00000+0  00000+0 0  9996
2 40350   0.0515  11.1650 0002670 109.7057 239.1516  5.00115208138374
O3B FM9                 
1 40351U 14083D   22199.80876033 -.00000025  00000+0  00000+0 0  9993
2 40351   0.0526  12.9607 0002585 105.0633 241.9984  5.00115561138554
ASTRA 2G                
1 40364U 14089A   22200.34632778  .00000142  00000+0  00000+0 0  9990
2 40364   0.0468 320.8392 0004134 127.0053   2.1297  1.00275418 27697
SES-9                   
1 41380U 16013A   22199.81062800 -.00000355  00000+0  00000+0 0  9997
2 41380   0.0454 267.2803 0002154 202.7610 226.6579  1.00271721 23103
SES-10                  
1 42432U 17017A   22200.46131323 -.00000280  00000+0  00000+0 0  9999
2 42432   0.0119  35.9297 0002858  85.1942 275.2693  1.00270825 19408
SES-15                  
1 42709U 17026A   22200.43638057  .00000052  00000+0  00000+0 0  9995
2 42709   0.0178   5.0640 0000463 117.3211 202.7487  1.00268603 19853
SES-11 (ECHOSTAR 105)   
1 42967U 17063A   22200.44105885 -.00000097  00000+0  00000+0 0  9991
2 42967   0.0153  64.9809 0002504  65.8045 220.2303  1.00271577 17475
SES-14                  
1 43175U 18012B   22200.42539288 -.00000286  00000+0  00000+0 0  9994
2 43175   0.0209 315.3825 0001026 159.2526 288.1765  1.00271092 16724
O3B FM15                
1 43231U 18024A   22199.67483615 -.00000025  00000+0  00000+0 0  9997
2 43231   0.0442   8.1048 0002877 111.9719 239.9480  5.00115981 79516
O3B FM16                
1 43232U 18024B   22199.52831949 -.00000025  00000+0  00000+0 0  9999
2 43232   0.0402   7.1284 0002843 113.1499 239.7460  5.00115834 79418
O3B FM14                
1 43233U 18024C   22199.56788405 -.00000025  00000+0  00000+0 0  9992
2 43233   0.0389   5.8601 0002648 115.1055 239.0565  5.00115256 79433
O3B FM13                
1 43234U 18024D   22199.82125963 -.00000025  00000+0  00000+0 0  9996
2 43234   0.0566  45.0596 0003436  86.7907 228.1752  5.00117230 79672
SES-12                  
1 43488U 18049A   22198.92130501 -.00000281  00000+0  00000+0 0  9992
2 43488   0.0160  49.9056 0000832 177.3083 135.1415  1.00270660 15076
O3B FM20                
1 44112U 19020A   22199.59461497 -.00000025  00000+0  00000+0 0  9998
2 44112   0.0476   8.8760 0002848 118.5839 232.5622  5.00115379 60051
O3B FM19                
1 44113U 19020B   22198.02223948 -.00000025  00000+0  00000+0 0  9993
2 44113   0.0499  34.0008 0002640  92.1302 233.8895  5.00115131 59842
O3B FM17                
1 44114U 19020C   22199.70193737 -.00000025  00000+0  00000+0 0  9992
2 44114   0.0452 344.4796 0002973 136.6260 238.9197  5.00115496 60016
O3B FM18                
1 44115U 19020D   22199.64847983 -.00000025  00000+0  00000+0 0  9995
2 44115   0.0477   9.4043 0002888 108.0053 242.6160  5.00115729 60139
SES-17                  
1 49332U 21095A   22199.84742656 -.00000281  00000+0  00000+0 0  9993
2 49332   0.0196  92.0683 0001128  31.0107  51.4822  1.00269694  3519
SES-22                  
1 52933U 22071A   22200.47063247  .00000107  00000+0  00000+0 0  9999
2 52933   0.0601 266.4585 0000561 296.4540 121.7559  1.00271099   233
